SL-14 R/B               
1 20262U 89080C   25251.84027690  .00000276  00000+0  82787-4 0  9998
2 20262  82.5912 289.9615 1229631 240.4082 106.9025 12.50339925637429
DELTA 1 R/B             
1 20323U 89089B   25251.92617568  .00000352  00000+0  96232-4 0  9998
2 20323  97.0902 123.1296 0068722 338.1271  21.6996 14.50457683869383
ARIANE 40 R/B           
1 20443U 90005H   25251.87564940  .00000299  00000+0  10905-3 0  9992
2 20443  98.3383 312.6680 0010739  37.9743 322.2201 14.39692462866646
DELTA 2 R/B(1)          
1 20453U 90008B   25251.77737555  .00031025  00000+0  62517-3 0  9996
2 20453  35.6073 269.9494 0125393  35.1224 325.7697 15.37451812897979
COSMOS 2058             
1 20465U 90010A   25251.92584643  .00003771  00000+0  23401-3 0  9993
2 20465  82.4739 226.1883 0008359 227.8327 132.2193 15.09418223914806
SL-14 R/B               
1 20466U 90010B   25251.90483974  .00000491  00000+0  56855-4 0  9993
2 20466  82.4988  78.0914 0019963 174.8133 185.3292 14.83328710901538
SL-14 R/B               
1 20511U 90018B   25251.88303656  .00000507  00000+0  60968-4 0  9995
2 20511  82.5221  33.0014 0015779 334.9299  25.1147 14.81912684895657
HST                     
1 20580U 90037B   25251.24874103  .00007489  00000+0  27278-3 0  9994
2 20580  28.4678 201.5468 0002072 269.0890  90.9467 15.26240338745389
SL-16 R/B               
1 20625U 90046B   25251.87577215  .00000273  00000+0  16574-3 0  9998
2 20625  71.0004 319.7451 0015738 226.7173 133.2637 14.14975171822671
COSMOS 2084             
1 20663U 90055A   25251.65978941  .00002715  00000+0  20474-3 0  9994
2 20663  62.7887 235.7418 0047690 163.4272 196.8400 15.04140204908925
SL-6 R/B(2)             
1 20666U 90055D   25251.94244044  .00002068  00000+0  16996-3 0  9994
2 20666  62.7841 151.3460 0014337 223.3114 136.6859 15.02384977910873
SL-8 R/B                
1 20775U 90078B   25251.88532739  .00010656  00000+0  34937-3 0  9991
2 20775  82.9056  53.8296 0391742 262.1406  93.5183 14.80668760782319
SL-8 R/B                
1 21088U 91006B   25251.90866318  .00000060  00000+0  45096-4 0  9994
2 21088  82.9423 305.2793 0022532 180.8091 350.9803 13.77470590739043
OKEAN-3                 
1 21397U 91039A   25251.78680608  .00003010  00000+0  22000-3 0  9992
2 21397  82.5193 152.8859 0012940 225.1161 134.9015 15.03241242837694
COSMOS 2151             
1 21422U 91042A   25251.86014691  .00001524  00000+0  12309-3 0  9996
2 21422  82.4931 258.8947 0011181 320.1675  39.8726 14.99126202835949
SL-14 R/B               
1 21423U 91042B   25251.83097013  .00000549  00000+0  66651-4 0  9999
2 21423  82.4941  30.7012 0018394 116.6973 243.6127 14.81611994826143
ERS-1                   
1 21574U 91050A   25251.91494459  .00000324  00000+0  11869-3 0  9990
2 21574  98.7946 260.5656 0032534  23.4769 336.7895 14.39254934789584
ARIANE 40 R/B           
1 21610U 91050F   25251.91240999  .00000330  00000+0  11169-3 0  9999
2 21610  98.2316 305.6927 0001903 259.0967 101.0010 14.42696590792786
INTERCOSMOS 25          
1 21819U 91086A   25251.91984332  .00002931  00000+0  57317-3 0  9999
2 21819  82.6007  59.8470 1489592 148.6106 221.3291 12.11296154474673
SL-8 R/B                
1 21876U 92008B   25251.93790466  .00000007  00000+0 -79767-5 0  9990
2 21876  82.9264  42.9375 0033412 282.8093 190.0565 13.75938679684420
SL-8 R/B                
1 21938U 92020B   25251.86406499  .00000026  00000+0  10675-4 0  9997
2 21938  82.9278 288.7965 0030475  85.8525  86.5759 13.75519678676133
USA 81                  
1 21949U 92023A   25251.95314798  .00000200  00000+0  66969-4 0  9993
2 21949  85.0046 236.2335 0001231  98.2698 261.8634 14.32271199 68770
COSMOS 2219             
1 22219U 92076A   25251.86260238  .00000206  00000+0  13275-3 0  9998
2 22219  71.0620  38.1558 0016169 120.9977 239.2737 14.14047207692675
SL-16 R/B               
1 22220U 92076B   25251.96967856 -.00000218  00000+0 -84736-4 0  9997
2 22220  70.9991 211.1519 0012596   1.2224  56.4218 14.16817973696092
COSMOS 2221             
1 22236U 92080A   25251.93877583  .00001526  00000+0  13629-3 0  9996
2 22236  82.5009  93.0147 0016069  83.7871 276.5180 14.95171014753626
SL-16 R/B               
1 22285U 92093B   25251.83213795  .00000235  00000+0  14482-3 0  9996
2 22285  71.0237  26.0208 0005992 240.3433 119.7094 14.15410696687428
COSMOS 2228             
1 22286U 92094A   25251.93724447  .00002484  00000+0  21827-3 0  9999
2 22286  82.5167  51.1798 0018090 189.8340 170.2530 14.96052221748877
SL-16 R/B               
1 22566U 93016B   25251.71307020  .00000294  00000+0  17561-3 0  9992
2 22566  71.0056 237.3755 0012226 245.5086 114.4762 14.15267014676428
COSMOS 2242             
1 22626U 93024A   25251.91154560  .00001792  00000+0  15926-3 0  9996
2 22626  82.5155  80.4257 0016248 191.9153 168.1687 14.95479217753216
SL-16 R/B               
1 22803U 93059B   25251.79843423  .00000228  00000+0  13645-3 0  9999
2 22803  70.9914  34.6868 0015381 132.3554 227.8875 14.17188973653768
ARIANE 40 R/B           
1 22830U 93061H   25251.92098286  .00000240  00000+0  10403-3 0  9999
2 22830  98.5196 319.1213 0011883 102.0184 258.2333 14.32706937668077
COSMOS 2278             
1 23087U 94023A   25251.90465783 -.00000109  00000+0 -32266-4 0  9999
2 23087  71.0525 195.4093 0010836 298.8867  61.1167 14.14313855619103
SL-16 R/B               
1 23088U 94023B   25251.89343239  .00000135  00000+0  94603-4 0  9999
2 23088  70.9978  92.6668 0004825 234.8164 125.2507 14.14976037620379
SL-16 R/B               
1 23343U 94074B   25251.97241744  .00000493  00000+0  73133-4 0  9998
2 23343  97.7336 284.9718 0008107  92.9506 331.9755 14.79129451660387
SL-16 R/B               
1 23405U 94077B   25251.80463346  .00000275  00000+0  16495-3 0  9991
2 23405  70.9854  15.1295 0000600  38.6759 321.4407 14.15531017590492
ARIANE 40+ R/B          
1 23561U 95021B   25251.80740906  .00000325  00000+0  11807-3 0  9992
2 23561  98.4766 320.4909 0006095 335.9236 139.7065 14.39588151593077
SL-16 R/B               
1 23705U 95058B   25251.94392342 -.00000150  00000+0 -52372-4 0  9995
2 23705  71.0213 201.8172 0011391  26.2941 333.8758 14.15463210542132
SL-16 R/B               
1 24298U 96051B   25251.94093175 -.00000135  00000+0 -46704-4 0  9994
2 24298  70.7619 199.9212 0013647  34.9854 325.2159 14.12395427495984
ORBVIEW 2 (SEASTAR)     
1 24883U 97037A   25251.90257849  .00000299  00000+0  12057-3 0  9997
2 24883  98.8380  46.6385 0001504 211.8419 148.2675 14.35308257482398
SL-16 R/B               
1 25400U 98043G   25251.86446968  .00000071  00000+0  48810-4 0  9993
2 25400  98.7940 199.2399 0009806 175.7252 184.4013 14.25990026413078
SL-16 R/B               
1 25407U 98045B   25251.90267581  .00000279  00000+0  16513-3 0  9993
2 25407  71.0108 203.8562 0009463 295.4147  64.5996 14.16153203401366
ISS (ZARYA)             
1 25544U 98067A   25251.87242329  .00009279  00000+0  16920-3 0  9999
2 25544  51.6326 252.2908 0004259 317.0333  43.0323 15.50195397528143
CZ-4B R/B               
1 25732U 99025C   25251.88067356  .00000059  00000+0  49292-4 0  9995
2 25732  98.6923 295.2018 0037788 146.3783  25.3798 14.18209863362399
OKEAN-O                 
1 25860U 99039A   25251.86965268  .00000741  00000+0  10501-3 0  9997
2 25860  97.9752 308.3253 0001258 116.8238 243.3102 14.79926992407498
SL-16 R/B               
1 25861U 99039B   25251.95717772  .00000627  00000+0  87037-4 0  9995
2 25861  98.0277 306.0307 0016048 124.2876 235.9859 14.81386298409953
DELTA 2 R/B             
1 25876U 99041E   25251.88672975  .00001645  00000+0  30343-3 0  9999
2 25876  51.7624 306.9480 0505848 172.0801 188.8510 14.11100197337351
HELIOS 1B               
1 25977U 99064A   25251.85632685  .00001748  00000+0  20304-3 0  9997
2 25977  98.1815 143.7307 0000746  40.8416 319.2854 14.86731882658233
TERRA                   
1 25994U 99068A   25251.93735172  .00000481  00000+0  10772-3 0  9995
2 25994  97.9901 307.0234 0003262  59.2988 351.4451 14.60792017368545
SL-16 R/B               
1 26070U 00006B   25251.94171381  .00000075  00000+0  62212-4 0  9998
2 26070  71.0020 119.9806 0014296  99.1823 261.0918 14.15789554322839
TITAN 4B R/B            
1 26474U 00047B   25251.91054890  .00003339  00000+0  22128-3 0  9990
2 26474  67.9905 190.9600 0047776 247.6506 111.9576 15.07721572365491
ENVISAT                 
1 27386U 02009A   25251.85069686  .00000148  00000+0  61752-4 0  9997
2 27386  98.3416 205.0850 0001168  88.9402 325.0623 14.38946229233025
IDEFIX & ARIANE 42P R/B 
1 27422U 02021B   25251.83322763  .00000322  00000+0  13918-3 0  9992
2 27422  98.5631 187.8384 0012141   8.7683 351.3710 14.30845203218013
AQUA                    
1 27424U 02022A   25251.94695493  .00001096  00000+0  23097-3 0  9998
2 27424  98.3864 211.3924 0001884  99.2074 332.3038 14.61466435242182
CZ-4B R/B               
1 27432U 02024C   25251.88228093  .00000045  00000+0  46386-4 0  9990
2 27432  98.9156 300.9064 0050257 178.0208 353.7156 14.14500640203533
MIDORI II (ADEOS-II)    
1 27597U 02056A   25251.85032385  .00000301  00000+0  13651-3 0  9994
2 27597  98.7453 204.3986 0001580 122.3312 237.8023 14.29105267184328
H-2A R/B                
1 27601U 02056E   25251.90055396  .00000407  00000+0  15768-3 0  9991
2 27601  98.2887 214.5172 0070190 344.4785  74.5514 14.33570624188068
CZ-4B R/B               
1 28059U 03049C   25251.95948142  .00000491  00000+0  12455-3 0  9990
2 28059  98.6686 234.9859 0049510  66.8769 293.7634 14.54758108160172
CZ-2C R/B               
1 28222U 04012C   25251.86304470  .00022336  00000+0  42662-3 0  9998
2 28222  97.7577 297.1683 0020034 251.9134 107.9933 15.47916868176012
SL-16 R/B               
1 28353U 04021B   25251.72353033 -.00000223  00000+0 -91043-4 0  9998
2 28353  70.9984 254.3542 0007217 301.4535  58.5881 14.14561813 97109
